     2.11           N: GPS NAV DATA                         RINEX VERSION / TYPE
teqc  2019Feb25                         20251110 06:01:40UTCPGM / RUN BY / DATE
Linux 2.6.32-573.12.1.x86_64|x86_64|gcc|Linux 64|=+         COMMENT
    3.0734D-08  0.0000D+00 -1.1921D-07  1.7881D-07          ION ALPHA
    1.4131D+05 -9.8304D+04  6.5536D+04 -3.9322D+05          ION BETA
   -1.862645149231D-09-2.664535259100D-15   233472     2392 DELTA-UTC: A0,A1,T,W
                                                            END OF HEADER
12 25 11 10  6  0  0.0-6.031822413206D-04-7.958078640513D-13 0.000000000000D+00
    5.300000000000D+01 1.190625000000D+01 4.692695469602D-09 1.119786255021D+00
    5.029141902924D-07 8.895641891286D-03 7.718801498413D-06 5.153599470139D+03
    1.080000000000D+05-1.452863216400D-07 3.042754663402D+00-1.043081283569D-07
    9.599189520659D-01 2.302500000000D+02 1.522934697234D+00-8.110694985859D-09
   -2.360812623036D-10 1.000000000000D+00 2.392000000000D+03 0.000000000000D+00
    2.000000000000D+00 0.000000000000D+00-1.257285475731D-08 5.300000000000D+01
    1.008180000000D+05 4.000000000000D+00
 6 25 11 10  6  0  0.0-5.687633529305D-04-7.958078640513D-12 0.000000000000D+00
    9.800000000000D+01 9.137500000000D+01 4.089456056545D-09 2.763891314413D+00
    4.826113581657D-06 3.653271123767D-03 3.894791007042D-06 5.153681554794D+03
    1.080000000000D+05 4.470348358154D-08-1.192017555767D+00 9.685754776001D-08
    9.875246082838D-01 3.183437500000D+02-7.015249708166D-01-8.010333662550D-09
    1.339341503235D-10 1.000000000000D+00 2.392000000000D+03 0.000000000000D+00
    2.800000000000D+00 0.000000000000D+00 3.725290298462D-09 9.800000000000D+01
    1.008180000000D+05 4.000000000000D+00
11 25 11 10  6  0  0.0-5.507469177246D-04 1.375610736432D-11 0.000000000000D+00
    1.480000000000D+02 8.487500000000D+01 4.525188492264D-09-2.544616113704D+00
    4.477798938751D-06 2.281625871547D-03 3.959983587265D-06 5.153752395630D+03
    1.080000000000D+05 8.568167686462D-08-1.170742117240D+00-8.195638656616D-08
    9.643683603502D-01 3.035312500000D+02-2.298195615152D+00-8.274630385855D-09
    1.160762636137D-10 1.000000000000D+00 2.392000000000D+03 0.000000000000D+00
    2.000000000000D+00 0.000000000000D+00-8.847564458847D-09 4.040000000000D+02
    1.008180000000D+05 4.000000000000D+00
19 25 11 10  5 59 44.0 6.740316748619D-04 2.273736754432D-12 0.000000000000D+00
    5.000000000000D+00 8.900000000000D+01 4.515902391175D-09 1.255019689636D-01
    4.621222615242D-06 1.084990496747D-02 9.201467037201D-06 5.153690067291D+03
    1.079840000000D+05 1.005828380585D-07-2.161343350500D+00-9.872019290924D-08
    9.601357521365D-01 2.019687500000D+02 2.892631145332D+00-8.075693527908D-09
   -1.803646557690D-10 1.000000000000D+00 2.392000000000D+03 0.000000000000D+00
    2.000000000000D+00 0.000000000000D+00-1.536682248116D-08 5.000000000000D+00
    1.008180000000D+05 4.000000000000D+00
24 25 11 10  6  0  0.0-2.423408441246D-04 1.307398633799D-11 0.000000000000D+00
    1.030000000000D+02-2.306250000000D+01 4.981993234301D-09 2.753143544942D+00
   -1.234933733940D-06 1.769371225964D-02 8.122995495796D-06 5.153657207489D+03
    1.080000000000D+05 1.434236764908D-07 1.819027053344D+00-1.862645149231D-07
    9.342578460579D-01 2.050937500000D+02 1.113969351878D+00-7.849969839896D-09
    3.375140588153D-10 1.000000000000D+00 2.392000000000D+03 0.000000000000D+00
    2.800000000000D+00 0.000000000000D+00 2.328306436539D-09 1.030000000000D+02
    1.008180000000D+05 4.000000000000D+00
25 25 11 10  6  0  0.0 4.624240100384D-04-2.046363078989D-12 0.000000000000D+00
    2.700000000000D+01 9.093750000000D+00 5.026995108810D-09 1.056088901519D+00
    3.725290298462D-07 1.265430671629D-02 7.558614015579D-06 5.153768779755D+03
    1.080000000000D+05-1.657754182816D-07 2.950237351216D+00 4.470348358154D-08
    9.481610522908D-01 2.285937500000D+02 1.136626697933D+00-8.369277185417D-09
   -2.882262914962D-10 1.000000000000D+00 2.392000000000D+03 0.000000000000D+00
    2.000000000000D+00 0.000000000000D+00 5.587935447693D-09 2.700000000000D+01
    1.008180000000D+05 4.000000000000D+00
32 25 11 10  6  0  0.0-2.543665468693D-04 1.523403625470D-11 0.000000000000D+00
    3.400000000000D+01-8.028125000000D+01 4.297321857847D-09-9.175121812194D-01
   -4.224479198456D-06 8.831975399517D-03 8.674338459969D-06 5.153686096191D+03
    1.080000000000D+05 7.450580596924D-09 8.688654678943D-01 2.142041921616D-07
    9.665364576088D-01 2.170625000000D+02-2.055478784839D+00-7.984261147953D-09
    5.785955293977D-11 1.000000000000D+00 2.392000000000D+03 0.000000000000D+00
    2.000000000000D+00 0.000000000000D+00 9.313225746155D-10 3.400000000000D+01
    1.008180000000D+05 4.000000000000D+00
29 25 11 10  6  0  0.0-4.276861436665D-04 5.798028723802D-12 0.000000000000D+00
    6.900000000000D+01 7.687500000000D+01 4.378396663510D-09-1.731093963195D+00
    3.872439265251D-06 3.304103389382D-03 9.240582585335D-06 5.153572444916D+03
    1.080000000000D+05-4.842877388000D-08-2.188913131578D+00 5.587935447693D-09
    9.635721774260D-01 2.080000000000D+02 2.783028698168D+00-7.883542666910D-09
   -1.200049986899D-10 1.000000000000D+00 2.392000000000D+03 0.000000000000D+00
    2.000000000000D+00 0.000000000000D+00-9.778887033463D-09 6.900000000000D+01
    1.008180000000D+05 4.000000000000D+00
28 25 11 10  6  0  0.0-6.326916627586D-04 2.387423592154D-12 0.000000000000D+00
    1.790000000000D+02-5.093750000000D+00 4.565190158494D-09 1.619264610928D+00
   -2.328306436539D-07 4.369165981188D-04 8.370727300644D-06 5.153712759018D+03
    1.080000000000D+05-7.450580596924D-09 1.898502354301D+00-8.754432201385D-08
    9.613217281201D-01 2.210312500000D+02 5.532092054868D-01-7.901757711354D-09
    2.935836575092D-10 1.000000000000D+00 2.392000000000D+03 0.000000000000D+00
    2.000000000000D+00 0.000000000000D+00-9.313225746155D-09 9.470000000000D+02
    1.013580000000D+05 4.000000000000D+00
24 25 11 10  5 59 44.0-2.423408441246D-04 1.307398633799D-11 0.000000000000D+00
    3.000000000000D+00-2.306250000000D+01 4.981993234301D-09 2.750809800007D+00
   -1.234933733940D-06 1.769370818511D-02 8.122995495796D-06 5.153657205582D+03
    1.079840000000D+05 1.434236764908D-07 1.819027190858D+00-1.862645149231D-07
    9.342578460579D-01 2.050937500000D+02 1.113969359192D+00-7.849969839896D-09
    3.375140588153D-10 1.000000000000D+00 2.392000000000D+03 0.000000000000D+00
    2.000000000000D+00 0.000000000000D+00 2.328306436539D-09 3.000000000000D+00
    1.022580000000D+05 4.000000000000D+00
20 25 11 10  6  0  0.0 3.622611984611D-04-1.136868377216D-13 0.000000000000D+00
    1.030000000000D+02-4.046875000000D+01 4.654122434309D-09 2.808366221326D+00
   -2.155080437660D-06 3.653744701296D-03 1.871958374977D-06 5.153621545792D+03
    1.080000000000D+05-7.264316082001D-08-3.522955577241D-01-6.519258022308D-08
    9.606021757707D-01 3.396250000000D+02-2.145951025325D+00-8.366419923543D-09
   -1.460775132862D-10 1.000000000000D+00 2.392000000000D+03 0.000000000000D+00
    2.000000000000D+00 0.000000000000D+00-8.381903171539D-09 1.030000000000D+02
    1.036680000000D+05 4.000000000000D+00
21 25 11 10  6  0  0.0 3.192378208041D-04 1.386979420204D-11 0.000000000000D+00
    7.000000000000D+01-7.084375000000D+01 4.607691928864D-09 1.004798842979D+00
   -3.725290298462D-06 2.522197319195D-04 2.669170498848D-06 5.153707159042D+03
    1.080000000000D+05-5.215406417847D-08-1.464118315776D-01 1.862645149231D-09
    9.616367909351D-01 3.252187500000D+02-4.595873740589D-01-8.367848554480D-09
   -1.839362331110D-10 1.000000000000D+00 2.392000000000D+03 0.000000000000D+00
    2.000000000000D+00 0.000000000000D+00-9.313225746155D-09 7.000000000000D+01
    1.036680000000D+05 4.000000000000D+00
31 25 11 10  6  0  0.0-1.836158335209D-04 1.818989403546D-12 0.000000000000D+00
    5.300000000000D+01 5.000000000000D-01 4.749126391605D-09 7.662306025687D-01
    2.440065145493D-07 1.091960235499D-02 8.178874850273D-06 5.153734907150D+03
    1.080000000000D+05-2.495944499969D-07 1.949288914473D+00 3.352761268616D-08
    9.541765070644D-01 2.222500000000D+02 9.056353213348D-01-8.103908988909D-09
    2.160804291886D-10 1.000000000000D+00 2.392000000000D+03 0.000000000000D+00
    2.000000000000D+00 0.000000000000D+00-1.303851604462D-08 5.300000000000D+01
    1.054320000000D+05 4.000000000000D+00
 5 25 11 10  6  0  0.0-2.233418636024D-04-7.958078640513D-13 0.000000000000D+00
    6.200000000000D+01-5.793750000000D+01 4.223390206869D-09-1.336320222278D+00
   -2.985820174217D-06 5.502220126800D-03 2.983957529068D-06 5.153645154953D+03
    1.080000000000D+05-4.470348358154D-08-2.142563310819D-01 2.011656761169D-07
    9.788527034756D-01 3.310000000000D+02 1.438727090358D+00-8.165340119191D-09
   -1.646497154644D-10 1.000000000000D+00 2.392000000000D+03 0.000000000000D+00
    2.000000000000D+00 0.000000000000D+00-1.071020960808D-08 6.200000000000D+01
    1.059360000000D+05 4.000000000000D+00
20 25 11 10  5 59 44.0 3.622611984611D-04-1.136868377216D-13 0.000000000000D+00
    3.000000000000D+00-4.046875000000D+01 4.654479592043D-09 2.806033458008D+00
   -2.155080437660D-06 3.653746913187D-03 1.871958374977D-06 5.153621540070D+03
    1.079840000000D+05-7.264316082001D-08-3.522954216727D-01-6.519258022308D-08
    9.606021918628D-01 3.396250000000D+02-2.145951993777D+00-8.366419923543D-09
   -1.460775132862D-10 1.000000000000D+00 2.392000000000D+03 0.000000000000D+00
    2.000000000000D+00 0.000000000000D+00-8.381903171539D-09 3.000000000000D+00
    1.066260000000D+05 4.000000000000D+00
